[{"OBJECT_NAME":"KINEIS-5B","OBJECT_ID":"2024-219E","EPOCH":"2026-03-09T22:46:51.481344","MEAN_MOTION":14.78074364,"ECCENTRICITY":0.00015209,"INCLINATION":97.9946,"RA_OF_ASC_NODE":233.4308,"ARG_OF_PERICENTER":190.4987,"MEAN_ANOMALY":169.6192,"EPHEMERIS_TYPE":0,"CLASSIFICATION_TYPE":"U","NORAD_CAT_ID":62085,"ELEMENT_SET_NO":999,"REV_AT_EPOCH":6934,"BSTAR":0.00031384185,"MEAN_MOTION_DOT":2.217e-5,"MEAN_MOTION_DDOT":0},{"OBJECT_NAME":"COSMOS 2251 DEB","OBJECT_ID":"1993-036BX","EPOCH":"2026-03-09T23:15:41.584320","MEAN_MOTION":14.78163626,"ECCENTRICITY":0.00411722,"INCLINATION":74.0315,"RA_OF_ASC_NODE":59.1683,"ARG_OF_PERICENTER":162.6806,"MEAN_ANOMALY":231.0089,"EPHEMERIS_TYPE":0,"CLASSIFICATION_TYPE":"U","NORAD_CAT_ID":33830,"ELEMENT_SET_NO":999,"REV_AT_EPOCH":90760,"BSTAR":0.00087258081,"MEAN_MOTION_DOT":6.382e-5,"MEAN_MOTION_DDOT":0}]
